PROBA-1                 
1 26958U 01049B   26156.71966295  .00001439  00000+0  96353-4 0  9995
2 26958  97.9595 164.8527 0055388 160.1023 200.2382 15.07441262341895
CUTE-1 (CO-55)          
1 27844U 03031E   26154.54951729  .00000336  00000+0  16425-3 0  9994
2 27844  98.6736 163.2800 0008690 219.4250 140.6297 14.24327019189732
CUBESAT XI-IV (CO-57)   
1 27848U 03031J   26156.28822976  .00000257  00000+0  13217-3 0  9990
2 27848  98.6767 164.7189 0008404 234.4870 125.5525 14.23614275189686
APRIZESAT 4             
1 35684U 09041D   26156.45646631  .00000803  00000+0  10227-3 0  9990
2 35684  98.1412 231.5431 0043259   1.5163 358.6174 14.83863132909620
APRIZESAT 3             
1 35686U 09041F   26156.66320183  .00001403  00000+0  12541-3 0  9994
2 35686  98.2060 309.3366 0062906 104.7769 256.0432 14.96208828914657
PROBA-2                 
1 36037U 09059B   26156.75494119  .00000204  00000+0  58128-4 0  9995
2 36037  98.2450 340.2664 0012351 320.5379  39.4918 14.54857431879869
APRIZESAT 5             
1 37792U 11044E   26156.52213177  .00001307  00000+0  17194-3 0  9991
2 37792  98.2452  89.2323 0053212  41.4820 319.0412 14.81049577797064
APRIZESAT 6             
1 37793U 11044F   26156.51628799  .00000814  00000+0  12180-3 0  9993
2 37793  98.2372  66.7773 0044239 122.3000  58.2477 14.76898404795429
PROBA-V                 
1 39159U 13021A   26156.66272920  .00000088  00000+0  56767-4 0  9998
2 39159  98.3579 135.8387 0004594 151.6088 208.5342 14.23594491679475
APRIZESAT 7             
1 39416U 13066A   26156.41393428  .00001467  00000+0  15055-3 0  9999
2 39416  97.7702 109.8035 0034327 249.6327 110.1203 14.91538340679474
APRIZESAT 8             
1 39425U 13066K   26156.57245531  .00001246  00000+0  14076-3 0  9994
2 39425  97.8215 104.2028 0045062 325.8291  34.0026 14.87629007677943
BUGSAT-1 (TITA)         
1 40014U 14033E   26156.67986977  .00004697  00000+0  25013-3 0  9998
2 40014  98.0419 248.5570 0027163 218.1640 141.7668 15.15453515654096
SAUDISAT 4              
1 40016U 14033G   26156.68938144  .00000869  00000+0  12097-3 0  9999
2 40016  97.7571 303.2230 0046163 110.2426 250.3758 14.79528270644377
APRIZESAT 9             
1 40018U 14033J   26156.32954640  .00000686  00000+0  10835-3 0  9996
2 40018  97.9047 289.8190 0064962 237.7720 121.7181 14.74198319641811
APRIZESAT 10            
1 40019U 14033K   26156.63001992  .00000448  00000+0  78329-4 0  9993
2 40019  97.9637 283.8482 0077734 311.3730  48.0809 14.70872336640558
TECHDEMOSAT-1 (TDS-1)   
1 40076U 14037H   26156.45426154  .00009708  00000+0  55207-3 0  9998
2 40076  98.3813 147.5058 0004856 318.8241  41.2621 15.13110802646454
TECHNOSAT               
1 42829U 17042E   26156.41393751  .00003013  00000+0  21639-3 0  9992
2 42829  97.4274 314.5222 0018976 130.9883 229.2989 15.04883648484938
FLYING LAPTOP           
1 42831U 17042G   26156.72011398  .00002971  00000+0  23599-3 0  9992
2 42831  97.4644 312.6984 0018889 159.2943 200.9051 15.01066979484731
HAWK-A                  
1 43765U 18099H   26156.07453890  .00006468  00000+0  26193-3 0  9995
2 43765  97.3913 208.4689 0033827 330.4373  29.4951 15.24492931411255
HAWK-B                  
1 43794U 18099AN  26156.41025860  .00006133  00000+0  26271-3 0  9993
2 43794  97.3962 208.2403 0031460 347.8838  12.1638 15.22689544411248
HAWK-C                  
1 43799U 18099AT  26156.40583589  .00007576  00000+0  27442-3 0  9997
2 43799  97.3891 209.6508 0039460 329.1129  30.7789 15.27929611412116
SALSAT                  
1 46495U 20068K   26155.97862976  .00008911  00000+0  31300-3 0  9995
2 46495  97.8851 158.3021 0009245 356.4519   3.6652 15.29615280313492
HAWK-2C                 
1 47502U 21006CT  26156.08909334  .00006280  00000+0  19013-3 0  9995
2 47502  97.2279 200.6410 0005390 233.3357 126.7391 15.34511296297646
HAWK-2A                 
1 47505U 21006CW  26156.09170506  .00006344  00000+0  19196-3 0  9993
2 47505  97.2322 201.3143 0004867 238.1535 121.9235 15.34526539297648
HAWK-2B                 
1 47508U 21006CZ  26156.08785753  .00007169  00000+0  21612-3 0  9993
2 47508  97.2190 199.6615 0005405 234.8047 125.2691 15.34594421297645
HAWK-3B                 
1 48931U 21059BE  26156.46230620  .00045399  00000+0  40119-3 0  9992
2 48931  97.6677 352.0696 0004024  23.0561 337.0879 15.68539553276010
HAWK-3C                 
1 48948U 21059BX  26156.46199366  .00043331  00000+0  38293-3 0  9995
2 48948  97.6789 357.7354 0004686  24.2600 335.8881 15.68544307276018
HAWK-3A                 
1 48957U 21059CG  26156.46189059  .00045938  00000+0  40578-3 0  9997
2 48957  97.6734 354.9499 0004569  25.9410 334.2078 15.68544298276014
HAWK-5C                 
1 52754U 22057Y   26156.69057218  .00020259  00000+0  35056-3 0  9996
2 52754  97.6586 315.6211 0005431 116.4507 243.7301 15.50964422224569
HAWK-5B                 
1 52756U 22057AA  26156.69042554  .00019831  00000+0  34317-3 0  9998
2 52756  97.6598 313.9695 0006015 109.4193 250.7709 15.50964017224563
